$$SOE
2459580.500000000, A.D. 2022-Jan-01 00:00:00.0000, -5.042921074314699E+08, -3.780223804659054E+06, -1.066078741702950E+07,
2459587.500000000, A.D. 2022-Jan-08 00:00:00.0000, -5.033389383345375E+08, -1.071826208427471E+07, -9.837890681516420E+06,
2459594.500000000, A.D. 2022-Jan-15 00:00:00.0000, -5.021944432030971E+08, -1.765221526905238E+07, -9.011252397875872E+06,
2459601.500000000, A.D. 2022-Jan-22 00:00:00.0000, -5.008579524323136E+08, -2.457940917964726E+07, -8.181167540314909E+06,
2459608.500000000, A.D. 2022-Jan-29 00:00:00.0000, -4.993287577034572E+08, -3.149713362025288E+07, -7.347934015133670E+06,
2459615.500000000, A.D. 2022-Feb-05 00:00:00.0000, -4.976061137404636E+08, -3.840263910487916E+07, -6.511852959735125E+06,
2459622.500000000, A.D. 2022-Feb-12 00:00:00.0000, -4.956892378943333E+08, -4.529313451247876E+07, -5.673229343008053E+06,
2459629.500000000, A.D. 2022-Feb-19 00:00:00.0000, -4.935773088812533E+08, -5.216578328508439E+07, -4.832372553707536E+06,
2459636.500000000, A.D. 2022-Feb-26 00:00:00.0000, -4.912694659870393E+08, -5.901769887514001E+07, -3.989596917670570E+06,
2459643.500000000, A.D. 2022-Mar-05 00:00:00.0000, -4.887648085810453E+08, -6.584594004119385E+07, -3.145222211223777E+06,
2459650.500000000, A.D. 2022-Mar-12 00:00:00.0000, -4.860623957205760E+08, -7.264750603866634E+07, -2.299574198995981E+06,
2459657.500000000, A.D. 2022-Mar-19 00:00:00.0000, -4.831612457782549E+08, -7.941933165773802E+07, -1.452985203069139E+06,
2459664.500000000, A.D. 2022-Mar-26 00:00:00.0000, -4.800603360749742E+08, -8.615828209318833E+07, -6.057947089882120E+05,
2459671.500000000, A.D. 2022-Apr-02 00:00:00.0000, -4.767586024573398E+08, -9.286114767889179E+07, 2.416499773593172E+05,
2459678.500000000, A.D. 2022-Apr-09 00:00:00.0000, -4.732549385553476E+08, -9.952463845648916E+07, 1.088992994040154E+06,
2459685.500000000, A.D. 2022-Apr-16 00:00:00.0000, -4.695481943714080E+08, -1.061453778960978E+08, 1.935869125692427E+06,
2459692.500000000, A.D. 2022-Apr-23 00:00:00.0000, -4.656371754783840E+08, -1.127198946548260E+08, 2.781903145690039E+06,
2459699.500000000, A.D. 2022-Apr-30 00:00:00.0000, -4.615206447076340E+08, -1.192446145868475E+08, 3.626709281785041E+06,
2459706.500000000, A.D. 2022-May-07 00:00:00.0000, -4.571973232786227E+08, -1.257158549442716E+08, 4.469890358576372E+06,
2459713.500000000, A.D. 2022-May-14 00:00:00.0000, -4.526658899963913E+08, -1.321298176917570E+08, 5.311036733017661E+06,
2459720.500000000, A.D. 2022-May-21 00:00:00.0000, -4.479249805641382E+08, -1.384825811338065E+08, 6.149725266239926E+06,
2459727.500000000, A.D. 2022-May-28 00:00:00.0000, -4.429731875087917E+08, -1.447700907684946E+08, 6.985518291573457E+06,
2459734.500000000, A.D. 2022-Jun-04 00:00:00.0000, -4.378090604658708E+08, -1.509881496314404E+08, 7.817962521503821E+06,
2459741.500000000, A.D. 2022-Jun-11 00:00:00.0000, -4.324311067062532E+08, -1.571324080735926E+08, 8.646587873660631E+06,
2459748.500000000, A.D. 2022-Jun-18 00:00:00.0000, -4.268377918971900E+08, -1.631983528997833E+08, 9.470906205954336E+06,
2459755.500000000, A.D. 2022-Jun-25 00:00:00.0000, -4.210275411036487E+08, -1.691812958358361E+08, 1.029040994729039E+07,
2459762.500000000, A.D. 2022-Jul-02 00:00:00.0000, -4.149987399370671E+08, -1.750763613184530E+08, 1.110457059719215E+07,
2459769.500000000, A.D. 2022-Jul-09 00:00:00.0000, -4.087497355089728E+08, -1.808784733525043E+08, 1.191283706307341E+07,
2459776.500000000, A.D. 2022-Jul-16 00:00:00.0000, -4.022788372998018E+08, -1.865823402668080E+08, 1.271463391774751E+07,
2459783.500000000, A.D. 2022-Jul-23 00:00:00.0000, -3.955843202050661E+08, -1.921824371965531E+08, 1.350935977299054E+07,
2459790.500000000, A.D. 2022-Jul-30 00:00:00.0000, -3.886644297501684E+08, -1.976729895440237E+08, 1.429638547383940E+07,
2459797.500000000, A.D. 2022-Aug-06 00:00:00.0000, -3.815173859646022E+08, -2.030479566567712E+08, 1.507505182169423E+07,
2459804.500000000, A.D. 2022-Aug-13 00:00:00.0000, -3.741413868416902E+08, -2.083010128430002E+08, 1.584466711059013E+07,
2459811.500000000, A.D. 2022-Aug-20 00:00:00.0000, -3.665346130711532E+08, -2.134255260892196E+08, 1.660450456127550E+07,
2459818.500000000, A.D. 2022-Aug-27 00:00:00.0000, -3.586952341142271E+08, -2.184145350563453E+08, 1.735379956707828E+07,
2459825.500000000, A.D. 2022-Sep-03 00:00:00.0000, -3.506214155362365E+08, -2.232607243007013E+08, 1.809174669713063E+07,
2459832.500000000, A.D. 2022-Sep-10 00:00:00.0000, -3.423113276981647E+08, -2.279563975157346E+08, 1.881749642561832E+07,
2459839.500000000, A.D. 2022-Sep-17 00:00:00.0000, -3.337631560022410E+08, -2.324934485982530E+08, 1.953015155648534E+07,
2459846.500000000, A.D. 2022-Sep-24 00:00:00.0000, -3.249751128941295E+08, -2.368633303738244E+08, 2.022876330310771E+07,
2459853.500000000, A.D. 2022-Oct-01 00:00:00.0000, -3.159454516909037E+08, -2.410570207683513E+08, 2.091232696497872E+07,
2459860.500000000, A.D. 2022-Oct-08 00:00:00.0000, -3.066724821917319E+08, -2.450649856483887E+08, 2.157977716903012E+07,
2459867.500000000, A.D. 2022-Oct-15 00:00:00.0000, -2.971545894323656E+08, -2.488771368546118E+08, 2.222998281753175E+07,
2459874.500000000, A.D. 2022-Oct-22 00:00:00.0000, -2.873902582715178E+08, -2.524827868152197E+08, 2.286174175938815E+07,
2459881.500000000, A.D. 2022-Oct-29 00:00:00.0000, -2.773781019114692E+08, -2.558706020163458E+08, 2.347377469394305E+07,
2459888.500000000, A.D. 2022-Nov-05 00:00:00.0000, -2.671168929640355E+08, -2.590285522518508E+08, 2.406471828471743E+07,
2459895.500000000, A.D. 2022-Nov-12 00:00:00.0000, -2.566055998635575E+08, -2.619438540312362E+08, 2.463311770800251E+07,
2459902.500000000, A.D. 2022-Nov-19 00:00:00.0000, -2.458434303334447E+08, -2.646029087392989E+08, 2.517741856033805E+07,
2459909.500000000, A.D. 2022-Nov-26 00:00:00.0000, -2.348298828159294E+08, -2.669912355932168E+08, 2.569595800018366E+07,
2459916.500000000, A.D. 2022-Dec-03 00:00:00.0000, -2.235648070976115E+08, -2.690933990809017E+08, 2.618695503726254E+07,
2459923.500000000, A.D. 2022-Dec-10 00:00:00.0000, -2.120484757547837E+08, -2.708929305740133E+08, 2.664849989651231E+07,
2459930.500000000, A.D. 2022-Dec-17 00:00:00.0000, -2.002816683798396E+08, -2.723722439180781E+08, 2.707854238368233E+07,
2459937.500000000, A.D. 2022-Dec-24 00:00:00.0000, -1.882657708359261E+08, -2.735125449514878E+08, 2.747487917312774E+07,
2459944.500000000, A.D. 2022-Dec-31 00:00:00.0000, -1.760028919763662E+08, -2.742937349025975E+08, 2.783513993954530E+07,
2459951.500000000, A.D. 2023-Jan-07 00:00:00.0000, -1.634960010167032E+08, -2.746943070136315E+08, 2.815677236454031E+07,
2459958.500000000, A.D. 2023-Jan-14 00:00:00.0000, -1.507490914404047E+08, -2.746912365723916E+08, 2.843702623129277E+07,
2459965.500000000, A.D. 2023-Jan-21 00:00:00.0000, -1.377673766947477E+08, -2.742598687245702E+08, 2.867293644385251E+07,
2459972.500000000, A.D. 2023-Jan-28 00:00:00.0000, -1.245575194194730E+08, -2.733738061964419E+08, 2.886130472263315E+07,
2459979.500000000, A.D. 2023-Feb-04 00:00:00.0000, -1.111279007204616E+08, -2.720047968450281E+08, 2.899868044461131E+07,
2459986.500000000, A.D. 2023-Feb-11 00:00:00.0000, -9.748893855203167E+07, -2.701226255540433E+08, 2.908134111777616E+07,
2459993.500000000, A.D. 2023-Feb-18 00:00:00.0000, -8.365346353547041E+07, -2.676950174959802E+08, 2.910527296373941E+07,
2460000.500000000, A.D. 2023-Feb-25 00:00:00.0000, -6.963716116156082E+07, -2.646875616336259E+08, 2.906615237586161E+07,
2460007.500000000, A.D. 2023-Mar-04 00:00:00.0000, -5.545909023997185E+07, -2.610636664967370E+08, 2.895932941819391E+07,
2460014.500000000, A.D. 2023-Mar-11 00:00:00.0000, -4.114228786935230E+07, -2.567845646785901E+08, 2.877981503572024E+07,
2460021.500000000, A.D. 2023-Mar-18 00:00:00.0000, -2.671447074559709E+07, -2.518093882126172E+08, 2.852227430690587E+07,
2460028.500000000, A.D. 2023-Mar-25 00:00:00.0000, -1.220884069990618E+07, -2.460953441420245E+08, 2.818102892262048E+07,
2460035.500000000, A.D. 2023-Apr-01 00:00:00.0000, 2.335001777114658E+06, -2.395980279469882E+08, 2.775007319352295E+07,
2460042.500000000, A.D. 2023-Apr-08 00:00:00.0000, 1.687003842708663E+07, -2.322719220422169E+08, 2.722310940923174E+07,
2460049.500000000, A.D. 2023-Apr-15 00:00:00.0000, 3.134072122724286E+07, -2.240711404027461E+08, 2.659360993458071E+07,
2460056.500000000, A.D. 2023-Apr-22 00:00:00.0000, 4.568180310770193E+07, -2.149504938144213E+08, 2.585491462929742E+07,
2460063.500000000, A.D. 2023-Apr-29 00:00:00.0000, 5.981717556420527E+07, -2.048669540940122E+08, 2.500037419383859E+07,
2460070.500000000, A.D. 2023-May-06 00:00:00.0000, 7.365881132446399E+07, -1.937815988278793E+08, 2.402355158198279E+07,
2460077.500000000, A.D. 2023-May-13 00:00:00.0000, 8.710596103671348E+07, -1.816621107820353E+08, 2.291849326725215E+07,
2460084.500000000, A.D. 2023-May-20 00:00:00.0000, 1.000448135669384E+08, -1.684858739351686E+08, 2.168007970369310E+07,
2460091.500000000, A.D. 2023-May-27 00:00:00.0000, 1.123488906181122E+08, -1.542436433361635E+08, 2.030445827876377E+07,
2460098.500000000, A.D. 2023-Jun-03 00:00:00.0000, 1.238804931499817E+08, -1.389436592568310E+08, 1.878955077512365E+07,
2460105.500000000, A.D. 2023-Jun-10 00:00:00.0000, 1.344935232460912E+08, -1.226159237719779E+08, 1.713560987409531E+07,
2460112.500000000, A.D. 2023-Jun-17 00:00:00.0000, 1.440379356623855E+08, -1.053161720745454E+08, 1.534577619194194E+07,
2460119.500000000, A.D. 2023-Jun-24 00:00:00.0000, 1.523658943932662E+08, -8.712888898060921E+07, 1.342656238215081E+07,
2460126.500000000, A.D. 2023-Jul-01 00:00:00.0000, 1.593394072947360E+08, -6.816860974485205E+07, 1.138817150122539E+07,
2460133.500000000, A.D. 2023-Jul-08 00:00:00.0000, 1.648388174964349E+08, -4.857878915785959E+07, 9.244553549988227E+06,
2460140.500000000, A.D. 2023-Jul-15 00:00:00.0000, 1.687711449315476E+08, -2.852779324103000E+07, 7.013126081985669E+06,
$$EOE